NORAD_CAT_ID,OBJECT_NAME,OBJECT_TYPE,EPOCH,MEAN_MOTION,ECCENTRICITY,INCLINATION,RA_OF_ASC_NODE,ARG_OF_PERICENTER,MEAN_ANOMALY,BSTAR,MEAN_MOTION_DOT,MEAN_MOTION_DDOT,TLE_LINE0,TLE_LINE1,TLE_LINE2,SEMIMAJOR_AXIS,PERIOD,APOGEE,PERIGEE,DECAYED
56804.0,STARLINK-6069,PAYLOAD,2024-07-29 04:33:09,14.98336549,0.0003009,70.001,8.2014,265.1785,94.9031,-8.3762e-05,-1.092e-05,0.0,0 STARLINK-6069,1 56804U 23078AP  24211.18969499 -.00001092  00000-0 -83762-4 0  9992,2 56804  70.0010   8.2014 0003009 265.1785  94.9031 14.98336549 65698,6950.173,96.107,574.129,569.946,0.0
56804.0,STARLINK-6069,PAYLOAD,2024-07-29 20:34:29,14.98332806,0.0003053,70.0011,6.5188,267.6571,92.4239,0.00015288,1.732e-05,0.0,0 STARLINK-6069,1 56804U 23078AP  24211.85729154  .00001732  00000-0  15288-3 0  9994,2 56804  70.0011   6.5188 0003053 267.6571  92.4239 14.98332806 65382,6950.184,96.107,574.171,569.927,0.0
56804.0,STARLINK-6069,PAYLOAD,2024-07-31 03:01:03,14.98330362,0.0002905,70.0019,3.3205,270.8561,89.2265,-5.3699e-05,-7.34e-06,0.0,0 STARLINK-6069,1 56804U 23078AP  24213.12573773 -.00000734  00000-0 -53699-4 0  9992,2 56804  70.0019   3.3205 0002905 270.8561  89.2265 14.98330362 65574,6950.192,96.107,574.076,570.038,0.0
56804.0,STARLINK-6069,PAYLOAD,2024-07-31 14:14:00,14.98325021,0.0002915,70.0019,2.1426,269.1931,90.8894,-0.00012799,-1.62e-05,0.0,0 STARLINK-6069,1 56804U 23078AP  24213.59306353 -.00001620  00000-0 -12799-3 0  9991,2 56804  70.0019   2.1426 0002915 269.1931  90.8894 14.98325021 66055,6950.208,96.107,574.099,570.047,0.0
56804.0,STARLINK-6069,PAYLOAD,2024-07-31 20:38:32,14.98327832,0.0002808,70.0021,1.4702,265.7287,94.3551,-6.6132e-05,-8.82e-06,0.0,0 STARLINK-6069,1 56804U 23078AP  24213.86010056 -.00000882  00000-0 -66132-4 0  9993,2 56804  70.0021   1.4702 0002808 265.7287  94.3551 14.98327832 66099,6950.2,96.107,574.016,570.113,0.0
56804.0,STARLINK-6069,PAYLOAD,2024-08-01 03:03:04,14.98329225,0.0002824,70.0022,0.797,266.221,93.8626,-5.0478e-05,-6.95e-06,0.0,0 STARLINK-6069,1 56804U 23078AP  24214.12713945 -.00000695  00000-0 -50478-4 0  9998,2 56804  70.0022   0.7970 0002824 266.2210  93.8626 14.98329225 65723,6950.195,96.107,574.023,570.098,0.0
56804.0,STARLINK-6069,PAYLOAD,2024-08-01 12:39:52,14.98325455,0.0003032,70.0016,359.7864,266.936,93.1452,0.00011392,1.266e-05,0.0,0 STARLINK-6069,1 56804U 23078AP  24214.52769444  .00001266  00000-0  11392-3 0  9991,2 56804  70.0016 359.7864 0003032 266.9360  93.1452 14.98325455 66193,6950.207,96.107,574.179,569.965,0.0
56804.0,STARLINK-6069,PAYLOAD,2024-08-01 19:04:24,14.98332615,0.0002931,70.0018,359.1134,266.5468,93.5356,0.00015922,1.807e-05,0.0,0 STARLINK-6069,1 56804U 23078AP  24214.79472946  .00001807  00000-0  15922-3 0  9992,2 56804  70.0018 359.1134 0002931 266.5468  93.5356 14.98332615 65823,6950.185,96.107,574.087,570.013,0.0
56804.0,STARLINK-6069,PAYLOAD,2024-08-02 12:41:54,14.98319877,0.0002833,70.0021,357.2623,265.8149,94.2686,-1.5447e-05,-2.77e-06,0.0,0 STARLINK-6069,1 56804U 23078AP  24215.52910459 -.00000277  00000-0 -15447-4 0  9995,2 56804  70.0021 357.2623 0002833 265.8149  94.2686 14.98319877 65939,6950.224,96.108,574.058,570.12,0.0
56804.0,STARLINK-6069,PAYLOAD,2024-08-02 14:18:02,14.9831947,0.000284,70.0021,357.094,265.8085,94.275,-1.9413e-05,-3.24e-06,0.0,0 STARLINK-6069,1 56804U 23078AP  24215.59586532 -.00000324  00000-0 -19413-4 0  9993,2 56804  70.0021 357.0940 0002840 265.8085  94.2750 14.98319470 66354,6950.225,96.108,574.064,570.117,0.0
56804.0,STARLINK-6069,PAYLOAD,2024-08-02 19:06:26,14.98323788,0.0003112,70.0015,356.5883,271.459,88.6212,1.0926e-05,3.7e-07,0.0,0 STARLINK-6069,1 56804U 23078AP  24215.79614285  .00000037  00000-0  10926-4 0  9991,2 56804  70.0015 356.5883 0003112 271.4590  88.6212 14.98323788 66384,6950.212,96.107,574.24,569.914,0.0
56804.0,STARLINK-6069,PAYLOAD,2024-08-03 03:07:06,14.98327471,0.000307,70.0016,355.7463,271.7052,88.3755,4.6724e-06,-3.7e-07,0.0,0 STARLINK-6069,1 56804U 23078AP  24216.12994162 -.00000037  00000-0  46724-5 0  9991,2 56804  70.0016 355.7463 0003070 271.7052  88.3755 14.98327471 66022,6950.201,96.107,574.199,569.932,0.0
56804.0,STARLINK-6069,PAYLOAD,2024-08-03 14:20:02,14.98333929,0.0003129,70.0016,354.5683,272.195,87.8851,2.8258e-05,2.44e-06,0.0,0 STARLINK-6069,1 56804U 23078AP  24216.59725640  .00000244  00000-0  28258-4 0  9995,2 56804  70.0016 354.5683 0003129 272.1950  87.8851 14.98333929 66509,6950.181,96.107,574.22,569.871,0.0
56804.0,STARLINK-6069,PAYLOAD,2024-08-03 19:08:26,14.98344465,0.0003209,70.0016,354.0634,274.5665,85.5128,5.3833e-05,5.5e-06,0.0,0 STARLINK-6069,1 56804U 23078AP  24216.79752792  .00000550  00000-0  53833-4 0  9992,2 56804  70.0016 354.0634 0003209 274.5665  85.5128 14.98344465 66125,6950.148,96.106,574.243,569.783,0.0
56804.0,STARLINK-6069,PAYLOAD,2024-08-04 03:09:07,14.98338203,0.0003005,70.0028,353.2237,284.7286,75.3539,-2.6643e-05,-4.11e-06,0.0,0 STARLINK-6069,1 56804U 23078AP  24217.13133298 -.00000411  00000-0 -26643-4 0  9992,2 56804  70.0028 353.2237 0003005 284.7286  75.3539 14.98338203 66175,6950.168,96.106,574.121,569.944,0.0
56804.0,STARLINK-6069,PAYLOAD,2024-08-04 12:45:55,14.98328015,0.0003007,70.0015,352.2112,271.4012,88.6803,6.3381e-05,6.63e-06,0.0,0 STARLINK-6069,1 56804U 23078AP  24217.53189683  .00000663  00000-0  63381-4 0  9992,2 56804  70.0015 352.2112 0003007 271.4012  88.6803 14.98328015 66232,6950.199,96.107,574.154,569.974,0.0
56804.0,STARLINK-6069,PAYLOAD,2024-08-04 14:22:03,14.98326816,0.0002978,70.0018,352.0433,271.0092,89.0726,8.0211e-05,8.64e-06,0.0,0 STARLINK-6069,1 56804U 23078AP  24217.59865713  .00000864  00000-0  80211-4 0  9997,2 56804  70.0018 352.0433 0002978 271.0092  89.0726 14.98326816 66651,6950.203,96.107,574.138,569.998,0.0
56804.0,STARLINK-6069,PAYLOAD,2024-08-04 19:10:27,14.98336769,0.0002975,70.0015,351.5388,274.048,86.0339,0.00014884,1.684e-05,0.0,0 STARLINK-6069,1 56804U 23078AP  24217.79892905  .00001684  00000-0  14884-3 0  9995,2 56804  70.0015 351.5388 0002975 274.0480  86.0339 14.98336769 66275,6950.172,96.107,574.105,569.969,0.0
56804.0,STARLINK-6069,PAYLOAD,2024-08-05 19:12:28,14.98337512,0.000267,70.0033,349.0167,263.3008,96.7848,1.3309e-05,6.6e-07,0.0,0 STARLINK-6069,1 56804U 23078AP  24218.80032825  .00000066  00000-0  13309-4 0  9990,2 56804  70.0033 349.0167 0002670 263.3008  96.7848 14.98337512 66428,6950.17,96.107,573.89,570.179,0.0
56804.0,STARLINK-6069,PAYLOAD,2024-08-06 01:37:01,14.98329996,0.0003068,70.0039,348.3423,265.5125,94.5684,-7.7186e-05,-1.014e-05,0.0,0 STARLINK-6069,1 56804U 23078AP  24219.06737325 -.00001014  00000-0 -77186-4 0  9995,2 56804  70.0039 348.3423 0003068 265.5125  94.5684 14.98329996 66462,6950.193,96.107,574.19,569.926,0.0
56804.0,STARLINK-6069,PAYLOAD,2024-08-06 11:13:50,14.98313685,0.0003179,70.0042,347.3356,263.241,96.8387,3.5079e-05,3.25e-06,0.0,0 STARLINK-6069,1 56804U 23078AP  24219.46794206  .00000325  00000-0  35079-4 0  9997,2 56804  70.0042 347.3356 0003179 263.2410  96.8387 14.98313685 66525,6950.243,96.108,574.318,569.899,0.0
56804.0,STARLINK-6069,PAYLOAD,2024-08-06 14:26:06,14.98322635,0.0002648,70.0024,346.9952,266.3056,93.78,-8.168e-05,-1.067e-05,0.0,0 STARLINK-6069,1 56804U 23078AP  24219.60146067 -.00001067  00000-0 -81680-4 0  9994,2 56804  70.0024 346.9952 0002648 266.3056  93.7800 14.98322635 66950,6950.216,96.107,573.921,570.24,0.0
56804.0,STARLINK-6069,PAYLOAD,2024-08-06 17:38:22,14.98323219,0.0002698,70.0021,346.6593,262.9635,97.1218,-0.00013791,-1.738e-05,0.0,0 STARLINK-6069,1 56804U 23078AP  24219.73498235 -.00001738  00000-0 -13791-3 0  9997,2 56804  70.0021 346.6593 0002698 262.9635  97.1218 14.98323219 66977,6950.214,96.107,573.954,570.204,0.0
56804.0,STARLINK-6069,PAYLOAD,2024-08-07 11:15:50,14.98332091,0.0002847,70.0024,344.8082,262.0129,98.0707,-3.4807e-05,-5.08e-06,0.0,0 STARLINK-6069,1 56804U 23078AP  24220.46933460 -.00000508  00000-0 -34807-4 0  9999,2 56804  70.0024 344.8082 0002847 262.0129  98.0707 14.98332091 66676,6950.186,96.107,574.03,570.073,0.0
56804.0,STARLINK-6069,PAYLOAD,2024-08-07 17:40:22,14.9833647,0.0002803,70.0024,344.1347,259.9,100.1843,2.7012e-05,2.29e-06,0.0,0 STARLINK-6069,1 56804U 23078AP  24220.73636962  .00000229  00000-0  27012-4 0  9994,2 56804  70.0024 344.1347 0002803 259.9000 100.1843 14.98336470 67120,6950.173,96.107,573.986,570.09,0.0
56804.0,STARLINK-6069,PAYLOAD,2024-08-08 12:53:59,14.98325919,0.0002776,70.0023,342.114,260.3707,99.7139,0.00012582,1.408e-05,0.0,0 STARLINK-6069,1 56804U 23078AP  24221.53749339  .00001408  00000-0  12582-3 0  9991,2 56804  70.0023 342.1140 0002776 260.3707  99.7139 14.98325919 67247,6950.206,96.107,574.0,570.141,0.0
56804.0,STARLINK-6069,PAYLOAD,2024-08-08 17:42:23,14.98323385,0.0002916,70.0028,341.6107,264.3905,95.6921,0.00031054,3.614e-05,0.0,0 STARLINK-6069,1 56804U 23078AP  24221.73777056  .00003614  00000-0  31054-3 0  9996,2 56804  70.0028 341.6107 0002916 264.3905  95.6921 14.98323385 66865,6950.213,96.107,574.105,570.052,0.0
56804.0,STARLINK-6069,PAYLOAD,2024-08-09 12:56:00,14.98331042,0.0002648,70.0041,339.5937,247.208,112.88,1.0552e-05,3.3e-07,0.0,0 STARLINK-6069,1 56804U 23078AP  24222.53889257  .00000033  00000-0  10552-4 0  9995,2 56804  70.0041 339.5937 0002648 247.2080 112.8800 14.98331042 67399,6950.19,96.107,573.895,570.214,0.0
56804.0,STARLINK-6069,PAYLOAD,2024-08-09 17:44:24,14.98333823,0.0002631,70.0038,339.088,255.7364,104.3503,3.5009e-05,3.25e-06,0.0,0 STARLINK-6069,1 56804U 23078AP  24222.73917007  .00000325  00000-0  35009-4 0  9990,2 56804  70.0038 339.0880 0002631 255.7364 104.3503 14.98333823 67012,6950.181,96.107,573.875,570.217,0.0
56804.0,STARLINK-6069,PAYLOAD,2024-08-10 11:21:53,14.9832876,0.0002506,70.0039,337.2359,254.3777,105.7105,-5.8007e-05,-7.85e-06,0.0,0 STARLINK-6069,1 56804U 23078AP  24223.47353460 -.00000785  00000-0 -58007-4 0  9994,2 56804  70.0039 337.2359 0002506 254.3777 105.7105 14.98328760 67127,6950.197,96.107,573.803,570.32,0.0
